     2.100          NAVIGATION                              RINEX VERSION / TYPE
fic2rin                                 04/26/2011 00:02:54 PGM / RUN BY / DATE
                                                            END OF HEADER
11 11  4 25 18  0  0.0 -.145606230944D-03 -.318323145621D-11  .000000000000D+00
     .490000000000D+02  .139375000000D+02  .630669127043D-08  .132990505732D+01
     .726431608200D-06  .117105026729D-01  .870414078236D-05  .515350486183D+04
     .151200000000D+06 -.173225998878D-06 -.617669622910D+00  .949949026108D-07
     .888101777095D+00  .172968750000D+03  .921741446665D+00 -.903109046688D-08
     .216437586923D-09  .100000000000D+01  .163300000000D+04  .000000000000D+00
     .240000000000D+01  .000000000000D+00 -.116415321827D-07  .490000000000D+02
     .144006000000D+06  .400000000000D+01
12 11  4 25 18  0  0.0 -.912742689252D-05  .272848410532D-11  .000000000000D+00
     .200000000000D+02 -.411250000000D+02  .429303596504D-08  .114360911669D+01
    -.217743217945D-05  .372955843341D-02  .532157719135D-05  .515376351547D+04
     .151200000000D+06  .447034835815D-07 -.244431423552D+01  .484287738800D-07
     .974833739818D+00  .281968750000D+03 -.219291958436D+00 -.806390732268D-08
    -.100361323309D-09  .100000000000D+01  .163300000000D+04  .000000000000D+00
     .240000000000D+01  .000000000000D+00 -.121071934700D-07  .200000000000D+02
     .144006000000D+06  .400000000000D+01
13 11  4 25 18  0  0.0  .273686833680D-03 -.147792889038D-11  .000000000000D+00
     .560000000000D+02  .260625000000D+02  .386908973455D-08 -.261137390792D+01
     .142678618431D-05  .472892576363D-02  .914558768272D-05  .515361448288D+04
     .151200000000D+06  .242143869400D-07  .180907056017D+01  .577419996262D-07
     .989752456968D+00  .219468750000D+03  .181885792100D+01 -.766674792225D-08
    -.117862052285D-09  .100000000000D+01  .163300000000D+04  .000000000000D+00
     .240000000000D+01  .000000000000D+00 -.111758708954D-07  .560000000000D+02
     .144006000000D+06  .400000000000D+01
14 11  4 25 18  0  0.0  .146147329360D-03  .238742359215D-11  .000000000000D+00
     .730000000000D+02  .272187500000D+02  .402445334892D-08 -.260840984132D+01
     .151991844177D-05  .565504957922D-02  .845827162266D-05  .515365680313D+04
     .151200000000D+06  .124797224998D-06  .178506752990D+01 -.428408384323D-07
     .982803202567D+00  .227406250000D+03 -.210079349304D+01 -.771925010918D-08
    -.135362781260D-09  .100000000000D+01  .163300000000D+04  .000000000000D+00
     .240000000000D+01  .000000000000D+00 -.884756445885D-08  .730000000000D+02
     .144006000000D+06  .400000000000D+01
15 11  4 25 18  0  0.0 -.132611952722D-03  .272848410532D-11  .000000000000D+00
     .960000000000D+02  .168125000000D+02  .477877048354D-08 -.301945137757D+01
     .895932316780D-06  .340585480444D-02  .805966556072D-05  .515360809517D+04
     .151200000000D+06 -.614672899246D-07  .171024898685D+01  .260770320892D-07
     .950006093350D+00  .219937500000D+03 -.508821750354D-01 -.811676666734D-08
    -.181078971237D-09  .100000000000D+01  .163300000000D+04  .000000000000D+00
     .240000000000D+01  .000000000000D+00 -.977888703346D-08  .960000000000D+02
     .144006000000D+06  .400000000000D+01
16 11  4 25 18  0  0.0 -.167702790350D-03 -.272848410532D-11  .000000000000D+00
     .590000000000D+02 -.574062500000D+02  .420517516242D-08 -.121048781377D+01
    -.301748514175D-05  .636529736221D-02  .583380460739D-05  .515379148674D+04
     .151200000000D+06 -.707805156708D-07 -.242651854807D+01 -.856816768646D-07
     .975852343344D+00  .275562500000D+03 -.135424635082D+00 -.804640659370D-08
    -.475019786481D-10  .100000000000D+01  .163300000000D+04  .000000000000D+00
     .240000000000D+01  .000000000000D+00 -.977888703346D-08  .590000000000D+02
     .144006000000D+06  .400000000000D+01
17 11  4 25 18  0  0.0  .184364616871D-03  .000000000000D+00  .000000000000D+00
     .850000000000D+02 -.505625000000D+02  .431839416416D-08 -.228165220752D+01
    -.257603824139D-05  .629543315154D-02  .930391252041D-05  .515375020790D+04
     .151200000000D+06  .186264514923D-08 -.138367841199D+01 -.800937414169D-07
     .960821429155D+00  .200468750000D+03 -.240175420060D+01 -.780639659632D-08
     .128219626576D-09  .100000000000D+01  .163300000000D+04  .000000000000D+00
     .340000000000D+01  .000000000000D+00 -.102445483208D-07  .850000000000D+02
     .144006000000D+06  .400000000000D+01
18 11  4 25 18  0  0.0  .133730005473D-03  .193267624127D-11  .000000000000D+00
     .310000000000D+02  .112187500000D+02  .544272671141D-08 -.896169091508D+00
     .776723027229D-06  .121922807302D-01  .616163015366D-05  .515359099007D+04
     .151200000000D+06  .912696123123D-07  .697930698129D+00  .283122062683D-06
     .933566007229D+00  .245750000000D+03 -.225867034381D+01 -.858464329914D-08
    -.162506769059D-09  .100000000000D+01  .163300000000D+04  .000000000000D+00
     .240000000000D+01  .000000000000D+00 -.107102096081D-07  .310000000000D+02
     .144006000000D+06  .400000000000D+01
19 11  4 25 18  0  0.0 -.134112313390D-03 -.386535248253D-11  .000000000000D+00
     .990000000000D+02 -.423437500000D+02  .441304096373D-08 -.293091541011D+01
    -.205077230930D-05  .723886571359D-02  .104941427708D-04  .515365086555D+04
     .151200000000D+06 -.707805156708D-07 -.132953464793D+01  .111758708954D-07
     .958353748217D+00  .176218750000D+03 -.389878054843D-02 -.787889961637D-08
     .153577825704D-09  .100000000000D+01  .163300000000D+04  .000000000000D+00
     .240000000000D+01  .000000000000D+00 -.149011611938D-07  .990000000000D+02
     .144006000000D+06  .400000000000D+01
20 11  4 25 18  0  0.0  .490364618599D-04  .113686837722D-12  .000000000000D+00
     .700000000000D+02  .138125000000D+02  .550987236544D-08 -.516926329679D+00
     .700354576111D-06  .464453396853D-02  .649876892567D-05  .515367330551D+04
     .151200000000D+06 -.149011611938D-07  .644005992886D+00  .428408384323D-07
     .933735220037D+00  .244750000000D+03  .128864560046D+01 -.860750139413D-08
    -.131434046184D-09  .100000000000D+01  .163300000000D+04  .000000000000D+00
     .240000000000D+01  .000000000000D+00 -.791624188423D-08  .700000000000D+02
     .144006000000D+06  .400000000000D+01
21 11  4 25 18  0  0.0 -.139962416142D-03 -.261479726760D-11  .000000000000D+00
     .470000000000D+02  .327187500000D+02  .537379526871D-08  .354111668115D+00
     .186078250408D-05  .177134710830D-01  .758655369282D-05  .515376336670D+04
     .151200000000D+06 -.115483999252D-06 -.356105730787D+00  .361353158951D-06
     .932067235953D+00  .220656250000D+03 -.237631069195D+01 -.864071706341D-08
     .164649715464D-09  .100000000000D+01  .163300000000D+04  .000000000000D+00
     .240000000000D+01  .000000000000D+00 -.116415321827D-07  .470000000000D+02
     .144006000000D+06  .400000000000D+01
22 11  4 25 18  0  0.0  .149655155838D-03 -.568434188608D-12  .000000000000D+00
     .135000000000D+03  .124687500000D+02  .541736851229D-08 -.168425645090D+01
     .691041350365D-06  .553593598306D-02  .631250441074D-05  .515370311737D+04
     .151200000000D+06  .912696123123D-07  .702125109552D+00  .856816768646D-07
     .931259368702D+00  .239687500000D+03 -.197531559201D+01 -.842820821156D-08
    -.121433629627D-09  .100000000000D+01  .163300000000D+04  .000000000000D+00
     .485000000000D+01  .000000000000D+00 -.172294676304D-07  .135000000000D+03
     .144006000000D+06  .400000000000D+01
23 11  4 25 18  0  0.0  .310844741762D-03 -.261479726760D-11  .000000000000D+00
     .900000000000D+02  .302187500000D+02  .443732768965D-08  .293738746209D+01
     .158697366714D-05  .717715208884D-02  .929273664951D-05  .515356872559D+04
     .151200000000D+06 -.128522515297D-06  .174013429661D+01 -.242143869400D-07
     .964481123539D+00  .203968750000D+03  .313454486288D+01 -.791104381244D-08
    -.164649715464D-09  .100000000000D+01  .163300000000D+04  .000000000000D+00
     .240000000000D+01  .000000000000D+00 -.200234353542D-07  .900000000000D+02
     .144006000000D+06  .400000000000D+01
24 11  4 25 18  0  0.0  .384626910090D-03  .318323145621D-11  .000000000000D+00
     .500000000000D+02  .257500000000D+02  .492163357722D-08  .217881629482D+01
     .125542283058D-05  .606808939483D-02  .794231891632D-05  .515371692848D+04
     .151200000000D+06  .726431608200D-07 -.311896182585D+00  .121071934700D-06
     .948686169661D+00  .216812500000D+03 -.291019553081D+00 -.820105589261D-08
     .215723271454D-09  .100000000000D+01  .163300000000D+04  .000000000000D+00
     .485000000000D+01  .000000000000D+00 -.139698386192D-08  .500000000000D+02
     .144006000000D+06  .400000000000D+01
25 11  4 25 18  0  0.0 -.100443139672D-05  .341060513165D-12  .000000000000D+00
     .550000000000D+02 -.482187500000D+02  .457626204825D-08 -.482308140539D+00
    -.260211527348D-05  .678189797327D-03  .522844493389D-05  .515366555405D+04
     .151200000000D+06 -.204890966415D-07 -.247377477385D+01  .558793544769D-08
     .963627259218D+00  .277187500000D+03  .825928046921D+00 -.821962809479D-08
    -.106433004790D-09  .100000000000D+01  .163300000000D+04  .000000000000D+00
     .240000000000D+01  .000000000000D+00  .465661287308D-08  .550000000000D+02
     .144006000000D+06  .400000000000D+01
26 11  4 25 18  0  0.0 -.125984661281D-04 -.106865627458D-10  .000000000000D+00
     .910000000000D+02  .127187500000D+02  .383373111886D-08  .258525196370D+01
     .456348061562D-06  .204951689811D-01  .864081084728D-05  .515365203667D+04
     .151200000000D+06  .931322574615D-07  .180443216774D+01 -.260770320892D-06
     .987390335811D+00  .222218750000D+03  .113990556695D+01 -.740423698762D-08
    -.190365072327D-09  .100000000000D+01  .163300000000D+04  .000000000000D+00
     .340000000000D+01  .000000000000D+00 -.651925802231D-08  .910000000000D+02
     .144006000000D+06  .400000000000D+01
